STARLINK-3948           
1 52546U 22051P   25021.57264710 -.00000272  00000+0  10067-5 0  9994
2 52546  53.2166 178.9516 0001378  91.2568 268.8582 15.08843426149233
STARLINK-3869           
1 52547U 22051Q   25021.57871354  .00009137  00000+0  27509-3 0  9998
2 52547  53.2182 177.2744 0001010  94.3771 265.7348 15.35102970149250
STARLINK-3931           
1 52548U 22051R   25021.57907720  .00000788  00000+0  67580-4 0  9993
2 52548  53.2174 179.1529 0001365  94.5434 265.5714 15.08844032149230
STARLINK-3935           
1 52549U 22051S   25021.59747758  .00001011  00000+0  81576-4 0  9990
2 52549  53.2161 179.0704 0001319  76.9258 283.1881 15.08842676149231
STARLINK-3965           
1 52550U 22051T   25021.58644322 -.00000147  00000+0  88351-5 0  9993
2 52550  53.2177 179.1200 0001317  90.1510 269.9633 15.08834011149230
STARLINK-3969           
1 52551U 22051U   25021.59380537  .00000452  00000+0  46487-4 0  9991
2 52551  53.2178 179.0899 0001335  93.1008 267.0137 15.08836532149238
STARLINK-3966           
1 52552U 22051V   25021.59013964  .00000015  00000+0  19009-4 0  9994
2 52552  53.2175 179.2574 0001405  98.9997 261.1154 15.08834680149232
STARLINK-3858           
1 52553U 22051W   25021.62321621  .00011780  00000+0  75744-3 0  9999
2 52553  53.2165 178.6178 0001279  93.8722 266.2416 15.08817437149243
STARLINK-3770           
1 52554U 22051X   25021.62829948  .00001163  00000+0  91109-4 0  9993
2 52554  53.2171 183.9369 0000808  85.5773 274.5311 15.08845287149164
STARLINK-3949           
1 52555U 22051Y   25021.61803356  .00066227  00000+0  18960-2 0  9992
2 52555  53.2279 155.1133 0001352 160.5026 199.6030 15.35348954149584
STARLINK-3763           
1 52556U 22051Z   25021.58263063  .00039001  00000+0  15737-2 0  9993
2 52556  53.1886 151.6978 0000635 349.9777  10.1209 15.24449661149620
STARLINK-3943           
1 52557U 22051AA  25021.57171927 -.00000978  00000+0 -43344-4 0  9990
2 52557  53.2170 179.1848 0001461  99.2256 260.8902 15.08849568149237
STARLINK-3954           
1 52558U 22051AB  25021.57264191  .00000490  00000+0  48866-4 0  9998
2 52558  53.2173 169.1831 0001294  86.1873 273.9267 15.08838281149369
STARLINK-3953           
1 52559U 22051AC  25021.58370243  .00001266  00000+0  97589-4 0  9994
2 52559  53.2182 169.3212 0001425  93.3457 266.7699 15.08843223149360
STARLINK-3956           
1 52560U 22051AD  25021.56896075  .00000832  00000+0  70324-4 0  9996
2 52560  53.2187 169.1992 0000936  71.0733 289.0360 15.08837157149368
STARLINK-3955           
1 52561U 22051AE  25021.61726157  .00002246  00000+0  15917-3 0  9993
2 52561  53.2166 183.9849 0001049 101.1721 258.9389 15.08832302149160
STARLINK-3957           
1 52562U 22051AF  25021.62784399  .00000207  00000+0  31105-4 0  9990
2 52562  53.2184 168.9341 0001365  87.8599 272.2549 15.08835360149372
STARLINK-3942           
1 52563U 22051AG  25021.62094332  .00001713  00000+0  12571-3 0  9990
2 52563  53.2168 183.9686 0001335  93.1271 266.9874 15.08832561149166
STARLINK-3959           
1 52564U 22051AH  25021.61454089  .00001113  00000+0  87995-4 0  9996
2 52564  53.2176 184.0063 0001493  90.0259 270.0904 15.08840917149168
STARLINK-3911           
1 52565U 22051AJ  25021.63151910 -.00000644  00000+0 -22358-4 0  9998
2 52565  53.2173 168.9176 0001281  83.7094 276.4044 15.08851402149372
STARLINK-3938           
1 52566U 22051AK  25021.59150035 -.00000500  00000+0 -13291-4 0  9998
2 52566  53.2166 184.0974 0001504 100.2636 259.8526 15.08841938149165
STARLINK-3929           
1 52567U 22051AL  25021.62415985  .00000362  00000+0  40827-4 0  9990
2 52567  53.2176 168.9500 0001360  94.4988 265.6159 15.08839501149370
STARLINK-3930           
1 52568U 22051AM  25021.61312281  .00001863  00000+0  13514-3 0  9994
2 52568  53.2177 169.0003 0001456 100.5093 259.6063 15.08828991149372
STARLINK-3927           
1 52569U 22051AN  25021.62049073 -.00005437  00000+0 -32363-3 0  9998
2 52569  53.2175 168.9668 0001467  88.9134 271.2026 15.08854770149376
STARLINK-3901           
1 52574U 22051AQ  25021.61680252 -.00001119  00000+0 -52237-4 0  9999
2 52574  53.2164 168.9845 0001051  61.4031 298.7067 15.08846593149371
STARLINK-3920           
1 52575U 22051AR  25021.60575649  .00001416  00000+0  10705-3 0  9993
2 52575  53.2171 169.0361 0001397  87.8418 272.2734 15.08846226149370
STARLINK-3932           
1 52576U 22051AS  25021.59936579  .00011981  00000+0  76913-3 0  9996
2 52576  53.2154 169.0661 0001528  91.6779 268.4388 15.08862529149370
STARLINK-3836           
1 52577U 22051AT  25021.58414110  .00000965  00000+0  78734-4 0  9992
2 52577  53.2173 184.1308 0001306  89.2290 270.8852 15.08840649149162
STARLINK-3833           
1 52578U 22051AU  25021.58781503 -.00001344  00000+0 -66397-4 0  9992
2 52578  53.2166 184.1142 0001526  99.6042 260.5122 15.08837833149162
STARLINK-3893           
1 52579U 22051AV  25021.17934539  .00001077  00000+0  85752-4 0  9994
2 52579  53.2172 185.9495 0001351  88.4011 271.7136 15.08840133149108
STARLINK-3919           
1 52580U 22051AW  25021.58142077  .00000973  00000+0  79184-4 0  9995
2 52580  53.2182 184.1539 0001486  93.2128 266.9034 15.08842093149169
STARLINK-3915           
1 52581U 22051AX  25021.59472349  .00001100  00000+0  87177-4 0  9999
2 52581  53.2175 169.0885 0001221  84.1312 275.9819 15.08841233149378
STARLINK-3895           
1 52583U 22051AZ  25021.59104378 -.00000966  00000+0 -42599-4 0  9995
2 52583  53.2167 169.1042 0001343  89.4006 270.7140 15.08828652149370
STARLINK-3922           
1 52584U 22051BA  25021.59840573  .00002074  00000+0  14836-3 0  9992
2 52584  53.2163 169.0694 0001289  86.9388 273.1752 15.08832723149373
STARLINK-3906           
1 52585U 22051BB  25021.57999724  .00001174  00000+0  91837-4 0  9991
2 52585  53.2172 169.1139 0001313  89.9137 270.2006 15.08841149149374
STARLINK-3910           
1 52586U 22051BC  25021.58736351  .00001219  00000+0  94647-4 0  9990
2 52586  53.2180 169.1216 0001384  93.8581 266.2570 15.08840111149374
STARLINK-3867           
1 52587U 22051BD  25021.63246413  .00000241  00000+0  33225-4 0  9991
2 52587  53.2178 168.7699 0001317  87.8563 272.2580 15.08835630149380
STARLINK-3917           
1 52588U 22051BE  25021.57632054  .00000956  00000+0  78173-4 0  9999
2 52588  53.2184 169.1689 0001460  93.1753 266.9407 15.08841947149377
STARLINK-4019           
1 52598U 22052A   25021.15083370  .00018021  00000+0  11467-2 0  9999
2 52598  53.2197 336.0779 0001628  94.1741 265.9437 15.08863583149306
STARLINK-4024           
1 52599U 22052B   25021.27089491  .00003910  00000+0  26374-3 0  9998
2 52599  53.2203 330.6436 0001548 106.8031 253.3131 15.08825793149391
STARLINK-4026           
1 52600U 22052C   25021.24880114  .00000743  00000+0  64755-4 0  9996
2 52600  53.2191 330.6415 0001984  82.1880 277.9337 15.08841025149395
STARLINK-4027           
1 52601U 22052D   25021.12368466  .00000175  00000+0  29059-4 0  9992
2 52601  53.2189 331.2055 0001128  85.3182 274.7939 15.08839937149370
STARLINK-4012           
1 52602U 22052E   25021.25248446 -.00000025  00000+0  16504-4 0  9998
2 52602  53.2195 330.6217 0001454  86.5219 273.5939 15.08838402149392
STARLINK-4016           
1 52603U 22052F   25021.23872185  .00001907  00000+0  13786-3 0  9997
2 52603  53.2191 330.6980 0001585  94.7864 265.3309 15.08838441149391
STARLINK-4013           
1 52604U 22052G   25021.24512230  .00002278  00000+0  16118-3 0  9995
2 52604  53.2189 330.6566 0001830  93.6887 266.4314 15.08844114148598
STARLINK-4000           
1 52605U 22052H   25021.25847186  .00000337  00000+0  39295-4 0  9994
2 52605  53.2188 335.3736 0001548  84.3261 275.7908 15.08837575148526
STARLINK-3928           
1 52606U 22052J   25021.24143257 -.00003470  00000+0 -20011-3 0  9990
2 52606  53.2186 330.6725 0001334  91.5781 268.5364 15.08829486148596
STARLINK-3947           
1 52607U 22052K   25021.27321664  .00000727  00000+0  63727-4 0  9996
2 52607  53.2185 335.5377 0001468 107.1224 252.9928 15.08845135148511
STARLINK-3979           
1 52608U 22052L   25021.23408010  .00001327  00000+0  10141-3 0  9992
2 52608  53.2195 330.7035 0001568  83.7039 276.4132 15.08845688148594
STARLINK-3997           
1 52609U 22052M   25021.15678698  .00001541  00000+0  11488-3 0  9998
2 52609  53.2206 331.0070 0001485 109.0150 251.1004 15.08847540148581
STARLINK-3998           
1 52610U 22052N   25021.14345883  .00001958  00000+0  14106-3 0  9998
2 52610  53.2177 336.1121 0001395  89.8421 270.2731 15.08847019148501
STARLINK-3980           
1 52611U 22052P   25021.26858025 -.00002319  00000+0 -12768-3 0  9995
2 52611  53.2212 335.5446 0001983 110.5209 249.5996 15.08827810148525
STARLINK-4002           
1 52612U 22052Q   25021.23040953 -.00000836  00000+0 -34420-4 0  9998
2 52612  53.2212 330.7228 0001652  85.4238 274.6942 15.08833520148598
STARLINK-3982           
1 52614U 22052S   25021.21659792  .00002319  00000+0  16368-3 0  9991
2 52614  53.2185 320.7846 0001755  74.5829 285.5357 15.08849793148728
STARLINK-4011           
1 52615U 22052T   25021.26489717  .00001938  00000+0  13979-3 0  9996
2 52615  53.2195 335.5666 0001578  92.3901 267.7272 15.08846012148512
STARLINK-4015           
1 52616U 22052U   25021.20924746  .00000711  00000+0  62768-4 0  9996
2 52616  53.2193 320.8180 0001658  79.5988 280.5191 15.08832707148722
STARLINK-3996           
1 52617U 22052V   25021.26812423  .00001545  00000+0  11512-3 0  9997
2 52617  53.2217 320.5502 0001679  84.6144 275.5040 15.08838945148726
STARLINK-3983           
1 52618U 22052W   25021.20556439  .00001510  00000+0  11297-3 0  9996
2 52618  53.2203 320.8330 0001764  87.7282 272.3912 15.08838981148718
STARLINK-3741           
1 52619U 22052X   25021.26444107  .00002030  00000+0  14557-3 0  9991
2 52619  53.2187 320.5602 0001711 104.6480 255.4702 15.08844373148722
